NUSAT-48 (HENRIETTA LE*)
1 60498U 24149AG  26068.80506098  .00012988  00000+0  45212-3 0  9999
2 60498  97.3923 150.8264 0002754 263.3026  96.7901 15.29812597 86946
STARLINK-33898          
1 64002U 25101J   26068.18167243  .00035724  00000+0  13009-2 0  9990
2 64002  43.0071   1.1709 0002213 260.0031 100.0571 15.27592458 46975
